{
  "links" : {
    "next" : "https://api.nasa.gov/neo/rest/v1/feed?start_date=2007-10-09&end_date=2007-10-09&detailed=true&api_key=t0TVs3DtDT2H8Oy2Zy8m2eVrNsAVKAexjcZXUckd",
    "prev" : "https://api.nasa.gov/neo/rest/v1/feed?start_date=2007-10-07&end_date=2007-10-07&detailed=true&api_key=t0TVs3DtDT2H8Oy2Zy8m2eVrNsAVKAexjcZXUckd",
    "self" : "https://api.nasa.gov/neo/rest/v1/feed?start_date=2007-10-08&end_date=2007-10-08&detailed=true&api_key=t0TVs3DtDT2H8Oy2Zy8m2eVrNsAVKAexjcZXUckd"
  },
  "element_count" : 3,
  "near_earth_objects" : {
    "2007-10-08" : [ {
      "links" : {
        "self" : "https://api.nasa.gov/neo/rest/v1/neo/3639436?api_key=t0TVs3DtDT2H8Oy2Zy8m2eVrNsAVKAexjcZXUckd"
      },
      "neo_reference_id" : "3639436",
      "name" : "(2013 KJ6)",
      "nasa_jpl_url" : "http://ssd.jpl.nasa.gov/sbdb.cgi?sstr=3639436",
      "absolute_magnitude_h" : 19.9,
      "estimated_diameter" : {
        "kilometers" : {
          "estimated_diameter_min" : 0.2783267681,
          "estimated_diameter_max" : 0.6223575734
        },
        "meters" : {
          "estimated_diameter_min" : 278.3267680719,
          "estimated_diameter_max" : 622.3575733667
        },
        "miles" : {
          "estimated_diameter_min" : 0.1729441822,
          "estimated_diameter_max" : 0.3867149477
        },
        "feet" : {
          "estimated_diameter_min" : 913.1455937611,
          "estimated_diameter_max" : 2041.8556210042
        }
      },
      "is_potentially_hazardous_asteroid" : false,
      "close_approach_data" : [ {
        "close_approach_date" : "2007-10-08",
        "epoch_date_close_approach" : 1191826800000,
        "relative_velocity" : {
          "kilometers_per_second" : "14.1209331861",
          "kilometers_per_hour" : "50835.3594698754",
          "miles_per_hour" : "31587.1154439345"
        },
        "miss_distance" : {
          "astronomical" : "0.2886484012",
          "lunar" : "112.2842254639",
          "kilometers" : "43181184",
          "miles" : "26831544"
        },
        "orbiting_body" : "Earth"
      } ],
      "orbital_data" : {
        "orbit_id" : "38",
        "orbit_determination_date" : "2017-04-06 08:45:43",
        "orbit_uncertainty" : "1",
        "minimum_orbit_intersection" : ".091853",
        "jupiter_tisserand_invariant" : "7.039",
        "epoch_osculation" : "2458000.5",
        "eccentricity" : ".2440389090925771",
        "semi_major_axis" : ".8238862128010548",
        "inclination" : "20.41325785396406",
        "ascending_node_longitude" : "212.2533010326439",
        "orbital_period" : "273.1487892367381",
        "perihelion_distance" : ".6228259202126706",
        "perihelion_argument" : "235.6704621791826",
        "aphelion_distance" : "1.024946505389439",
        "perihelion_time" : "2457970.788699774121",
        "mean_anomaly" : "39.15839462881949",
        "mean_motion" : "1.317963008388032",
        "equinox" : "J2000"
      }
    }, {
      "links" : {
        "self" : "https://api.nasa.gov/neo/rest/v1/neo/3728898?api_key=t0TVs3DtDT2H8Oy2Zy8m2eVrNsAVKAexjcZXUckd"
      },
      "neo_reference_id" : "3728898",
      "name" : "(2015 TF)",
      "nasa_jpl_url" : "http://ssd.jpl.nasa.gov/sbdb.cgi?sstr=3728898",
      "absolute_magnitude_h" : 22.2,
      "estimated_diameter" : {
        "kilometers" : {
          "estimated_diameter_min" : 0.096506147,
          "estimated_diameter_max" : 0.2157943048
        },
        "meters" : {
          "estimated_diameter_min" : 96.5061469579,
          "estimated_diameter_max" : 215.7943048444
        },
        "miles" : {
          "estimated_diameter_min" : 0.059966121,
          "estimated_diameter_max" : 0.134088323
        },
        "feet" : {
          "estimated_diameter_min" : 316.6212271853,
          "estimated_diameter_max" : 707.9865871058
        }
      },
      "is_potentially_hazardous_asteroid" : false,
      "close_approach_data" : [ {
        "close_approach_date" : "2007-10-08",
        "epoch_date_close_approach" : 1191826800000,
        "relative_velocity" : {
          "kilometers_per_second" : "28.0125866139",
          "kilometers_per_hour" : "100845.3118100346",
          "miles_per_hour" : "62661.3549966296"
        },
        "miss_distance" : {
          "astronomical" : "0.408137252",
          "lunar" : "158.7653961182",
          "kilometers" : "61056464",
          "miles" : "37938728"
        },
        "orbiting_body" : "Earth"
      } ],
      "orbital_data" : {
        "orbit_id" : "26",
        "orbit_determination_date" : "2017-04-06 08:31:39",
        "orbit_uncertainty" : "1",
        "minimum_orbit_intersection" : ".0499383",
        "jupiter_tisserand_invariant" : "5.512",
        "epoch_osculation" : "2458000.5",
        "eccentricity" : ".4988696932157258",
        "semi_major_axis" : "1.100327266788939",
        "inclination" : "10.78773208277203",
        "ascending_node_longitude" : "16.98040476322838",
        "orbital_period" : "421.5812038217386",
        "perihelion_distance" : ".5514073407690427",
        "perihelion_argument" : "125.9795009921141",
        "aphelion_distance" : "1.649247192808834",
        "perihelion_time" : "2457807.135336047736",
        "mean_anomaly" : "165.1195034118488",
        "mean_motion" : ".8539280137171922",
        "equinox" : "J2000"
      }
    }, {
      "links" : {
        "self" : "https://api.nasa.gov/neo/rest/v1/neo/3742340?api_key=t0TVs3DtDT2H8Oy2Zy8m2eVrNsAVKAexjcZXUckd"
      },
      "neo_reference_id" : "3742340",
      "name" : "(2016 CJ136)",
      "nasa_jpl_url" : "http://ssd.jpl.nasa.gov/sbdb.cgi?sstr=3742340",
      "absolute_magnitude_h" : 21.6,
      "estimated_diameter" : {
        "kilometers" : {
          "estimated_diameter_min" : 0.1272198785,
          "estimated_diameter_max" : 0.2844722965
        },
        "meters" : {
          "estimated_diameter_min" : 127.2198785394,
          "estimated_diameter_max" : 284.4722965033
        },
        "miles" : {
          "estimated_diameter_min" : 0.0790507431,
          "estimated_diameter_max" : 0.1767628354
        },
        "feet" : {
          "estimated_diameter_min" : 417.3880663071,
          "estimated_diameter_max" : 933.3080892598
        }
      },
      "is_potentially_hazardous_asteroid" : false,
      "close_approach_data" : [ {
        "close_approach_date" : "2007-10-08",
        "epoch_date_close_approach" : 1191826800000,
        "relative_velocity" : {
          "kilometers_per_second" : "21.9770504773",
          "kilometers_per_hour" : "79117.3817181346",
          "miles_per_hour" : "49160.464212582"
        },
        "miss_distance" : {
          "astronomical" : "0.4849873572",
          "lunar" : "188.6600799561",
          "kilometers" : "72553072",
          "miles" : "45082392"
        },
        "orbiting_body" : "Earth"
      } ],
      "orbital_data" : {
        "orbit_id" : "9",
        "orbit_determination_date" : "2017-04-06 08:28:30",
        "orbit_uncertainty" : "3",
        "minimum_orbit_intersection" : ".334879",
        "jupiter_tisserand_invariant" : "5.611",
        "epoch_osculation" : "2458000.5",
        "eccentricity" : ".3794037751586797",
        "semi_major_axis" : "1.066915003114141",
        "inclination" : "28.89741196620628",
        "ascending_node_longitude" : "127.2412920293152",
        "orbital_period" : "402.5252795534224",
        "perihelion_distance" : ".6621234231592017",
        "perihelion_argument" : "160.9155530730892",
        "aphelion_distance" : "1.471706583069081",
        "perihelion_time" : "2457965.658648468590",
        "mean_anomaly" : "31.1604939824478",
        "mean_motion" : ".8943537667979471",
        "equinox" : "J2000"
      }
    } ]
  }
}